ORBCOMM FM05            
1 25117U 97084F   26005.32693068  .00002666  00000+0  76834-3 0  9994
2 25117  45.0135 116.9205 0003443 185.4677 174.6138 14.46812794469872
ORBCOMM FM06            
1 25118U 97084G   26005.37614243  .00002637  00000+0  75779-3 0  9993
2 25118  45.0135 116.1769 0002489 196.0143 210.8601 14.46979447470807
ORBCOMM FM07            
1 25119U 97084H   26005.03409400  .00002254  00000+0  65316-3 0  9995
2 25119  45.0123 118.5688 0004081 175.6331 184.4557 14.46991661470744
ORBCOMM FM03            
1 25158U 98007B   26005.45701617  .00001706  00000+0  63527-3 0  9998
2 25158 107.9638 191.2630 0046772 255.3624 104.2328 14.35111744453050
ORBCOMM FM04            
1 25159U 98007C   26005.54608251  .00001872  00000+0  69044-3 0  9993
2 25159 107.9629 194.8055 0042529 252.6827 106.9658 14.35355514453254
ORBCOMM FM17            
1 25413U 98046A   26005.45844083  .00001296  00000+0  49405-3 0  9993
2 25413  44.9956  22.6496 0002315 202.2343 157.8404 14.35598823432231
ORBCOMM FM18            
1 25414U 98046B   26005.19030002  .00001884  00000+0  64731-3 0  9995
2 25414  44.9930 295.7994 0004289 242.1123 117.9291 14.39238476433344
ORBCOMM FM19            
1 25415U 98046C   26005.19116762  .00001762  00000+0  61045-3 0  9994
2 25415  44.9942 298.1025 0003040 244.9848 259.8993 14.39060695433293
